0 SKYMED 1
1 31598U 07023A   13282.47687378  .00000411  00000-0  58130-4 0   105
2 31598 097.8737 105.8678 0001457 085.8171 274.3222 14.82157416342966
0 SKYMED 1
1 31598U 07023A   13282.81442546  .00000505  00000-0  69955-4 0   111
2 31598 097.8737 106.2000 0001480 087.9653 272.1747 14.82158267343014
0 SKYMED 1
1 31598U 07023A   13283.15197713  .00000613  00000-0  83519-4 0   125
2 31598 097.8739 106.5325 0001492 086.5508 273.5887 14.82159067343060
0 SKYMED 1
1 31598U 07023A   13283.35450799  .00000707  00000-0  95391-4 0   139
2 31598 097.8742 106.7320 0001498 085.8699 274.2698 14.82159750343090
0 SKYMED 1
1 31598U 07023A   13283.69205897  .00000799  00000-0  10684-3 0   135
2 31598 097.8742 107.0640 0001467 085.5292 274.6100 14.82160812343140
0 SKYMED 1
1 31598U 07023A   13283.82707931  .00000803  00000-0  10736-3 0   141
2 31598 097.8743 107.1970 0001475 085.3999 274.7386 14.82161082343168
0 SKYMED 1
1 31598U 07023A   13284.16463056  .00000737  00000-0  99132-4 0   151
2 31598 097.8745 107.5297 0001473 085.7903 274.3446 14.82161036343211
0 SKYMED 1
1 31598U 07023A   13284.50218267  .00000673  00000-0  91110-4 0   169
2 31598 097.8746 107.8618 0001464 087.0197 273.1184 14.82161210343267
0 SKYMED 1
1 31598U 07023A   13285.51483806  .00000243  00000-0  37104-4 0   193
2 31598 097.8747 108.8585 0001437 085.6944 274.4430 14.82160149343411
0 SKYMED 1
1 31598U 07023A   13285.78487941  .00000182  00000-0  29419-4 0   200
2 31598 097.8746 109.1242 0001441 085.7399 274.3981 14.82160084343456
0 SKYMED 1
1 31598U 07023A   13286.18994123  .00000112  00000-0  20573-4 0   216
2 31598 097.8751 109.5233 0001438 086.1638 273.9721 14.82159778343515
0 SKYMED 1
1 31598U 07023A   13286.52749285  .00000086  00000-0  17329-4 0   227
2 31598 097.8750 109.8558 0001455 085.4234 274.7139 14.82159944343562
0 SKYMED 1
1 31598U 07023A   13286.86504431  .00000162  00000-0  26913-4 0   231
2 31598 097.8751 110.1881 0001468 087.6336 272.5069 14.82160598343619
0 SKYMED 1
1 31598U 07023A   13287.20259497  .00000313  00000-0  45810-4 0   245
2 31598 097.8752 110.5203 0001490 087.3024 272.8359 14.82161372343669
0 SKYMED 1
1 31598U 07023A   13287.54014566  .00000553  00000-0  75954-4 0   257
2 31598 097.8750 110.8524 0001422 091.4188 268.7236 14.82162978343715
0 SKYMED 1
1 31598U 07023A   13287.87769548  .00000684  00000-0  92401-4 0   262
2 31598 097.8752 111.1846 0001443 090.4716 269.6677 14.82164043343766
0 SKYMED 1
1 31598U 07023A   13288.21524586  .00000688  00000-0  92882-4 0   270
2 31598 097.8750 111.5168 0001450 089.7708 270.3656 14.82164369343818
0 SKYMED 1
1 31598U 07023A   13288.55279637  .00000837  00000-0  11170-3 0   288
2 31598 097.8746 111.8490 0001431 089.7292 270.4111 14.82165745343862
0 SKYMED 1
1 31598U 07023A   13288.89034606  .00000838  00000-0  11176-3 0   298
2 31598 097.8745 112.1812 0001440 089.6965 270.4419 14.82166409343914
0 SKYMED 1
1 31598U 07023A   13289.22789611  .00000783  00000-0  10483-3 0   300
2 31598 097.8745 112.5133 0001423 090.5053 269.6298 14.82166448343967
0 SKYMED 1
1 31598U 07023A   13289.56544667  .00000758  00000-0  10174-3 0   317
2 31598 097.8743 112.8455 0001444 089.6758 270.4621 14.82166934344016
0 SKYMED 1
1 31598U 07023A   13289.83548666  .00000735  00000-0  98773-4 0   328
2 31598 097.8742 113.1112 0001451 089.4378 270.7003 14.82167307344059
0 SKYMED 1
1 31598U 07023A   13290.24054669  .00000561  00000-0  77021-4 0   331
2 31598 097.8741 113.5096 0001450 090.2260 269.9079 14.82166783344119
0 SKYMED 1
1 31598U 07023A   13290.37556746  .00000512  00000-0  70785-4 0   345
2 31598 097.8739 113.6425 0001462 090.4514 269.6860 14.82166720344138
0 SKYMED 1
1 31598U 07023A   13290.71311769  .00000414  00000-0  58478-4 0   354
2 31598 097.8738 113.9748 0001487 088.9272 271.2105 14.82166726344180
0 SKYMED 1
1 31598U 07023A   13290.84813782  .00000397  00000-0  56336-4 0   362
2 31598 097.8738 114.1077 0001483 088.5284 271.6100 14.82166809344207
0 SKYMED 1
1 31598U 07023A   13291.18568794  .00000301  00000-0  44274-4 0   374
2 31598 097.8738 114.4398 0001479 087.7665 272.3696 14.82166497344251
0 SKYMED 1
1 31598U 07023A   13291.52323837  .00000234  00000-0  35879-4 0   386
2 31598 097.8737 114.7718 0001480 089.7533 270.3853 14.82166517344309
0 SKYMED 1
1 31598U 07023A   13291.86078931 -.00000076  00000-0 -29723-5 0   394
2 31598 097.8736 115.1039 0001479 090.9234 269.2118 14.82164854344357
0 SKYMED 1
1 31598U 07023A   13292.19834072 -.00000280  00000-0 -28601-4 0   409
2 31598 097.8736 115.4364 0001402 088.6715 271.4619 14.82163542344405
0 SKYMED 1
1 31598U 07023A   13292.53589449 -.00000996  00000-0 -11859-3 0   413
2 31598 097.8738 115.7695 0001537 092.5083 267.6231 14.82159160344451
0 SKYMED 1
1 31598U 07023A   13292.87344845 -.00001384  00000-0 -16733-3 0   428
2 31598 097.8736 116.1015 0001498 092.1000 268.0341 14.82156441344503
0 SKYMED 1
1 31598U 07023A   13293.21100185 -.00001607  00000-0 -19536-3 0   437
2 31598 097.8739 116.4334 0001421 092.9878 267.1458 14.82154246344555
0 SKYMED 1
1 31598U 07023A   13293.54855575 -.00001854  00000-0 -22639-3 0   446
2 31598 097.8740 116.7658 0001375 088.3149 271.8224 14.82152372344604
0 SKYMED 1
1 31598U 07023A   13293.88610923 -.00001898  00000-0 -23203-3 0   456
2 31598 097.8741 117.0984 0001410 086.0641 274.0750 14.82151202344658
0 SKYMED 1
1 31598U 07023A   13294.22366195 -.00001697  00000-0 -20666-3 0   462
2 31598 097.8743 117.4306 0001427 086.0452 274.0943 14.82151154344706
0 SKYMED 1
1 31598U 07023A   13294.56121463 -.00001414  00000-0 -17114-3 0   478
2 31598 097.8736 117.7627 0001336 088.0441 272.0986 14.82151818344753
0 SKYMED 1
1 31598U 07023A   13294.83125593 -.00001211  00000-0 -14557-3 0   480
2 31598 097.8736 118.0283 0001362 088.6603 271.4790 14.82152226344794
0 SKYMED 1
1 31598U 07023A   13295.16880777 -.00000723  00000-0 -84254-4 0   499
2 31598 097.8739 118.3607 0001458 088.1708 271.9683 14.82153814344843
0 SKYMED 1
1 31598U 07023A   13295.57386996 -.00000077  00000-0 -31086-5 0   508
2 31598 097.8737 118.7588 0001328 090.7367 269.4049 14.82156296344901
0 SKYMED 1
1 31598U 07023A   13295.84391060  .00000190  00000-0  30437-4 0   519
2 31598 097.8739 119.0247 0001363 090.4840 269.6547 14.82157526344947
0 SKYMED 1
1 31598U 07023A   13296.18146248  .00000223  00000-0  34486-4 0   529
2 31598 097.8739 119.3571 0001429 088.1019 272.0326 14.82157460344990
